******** Week 999 almanac for PRN-19 ********
ID:                         19
Health:                     000
Eccentricity:               0.9566307068E-002
Time of Applicability(s):  61440.0000
Orbital Inclination(rad):   0.9813246611
Rate of Right Ascen(r/s):  -0.7783181344E-008
SQRT(A)  (m 1/2):           5153.561035
Right Ascen at Week(rad):   0.7634550476E-001
Argument of Perigee(rad):   1.300190656
Mean Anom(rad):             0.2822452744E+001
Af0(s):                    -0.3938674927E-003
Af1(s/s):                   0.3637978807E-011
week:                        999

******** Week 999 almanac for PRN-20 ********
ID:                         20
Health:                     000
Eccentricity:               0.4379749298E-002
Time of Applicability(s):  61440.0000
Orbital Inclination(rad):   0.9289236377
Rate of Right Ascen(r/s):  -0.8194627053E-008
SQRT(A)  (m 1/2):           5153.608887
Right Ascen at Week(rad):   0.1959370588E+001
Argument of Perigee(rad):   2.131581278
Mean Anom(rad):            -0.2272084706E+001
Af0(s):                     0.5168914795E-003
Af1(s/s):                   0.0000000000E+000
week:                        999

******** Week 999 almanac for PRN-21 ********
ID:                         21
Health:                     000
Eccentricity:               0.2437782288E-001
Time of Applicability(s):  61440.0000
Orbital Inclination(rad):   0.9454378996
Rate of Right Ascen(r/s):  -0.7966046104E-008
SQRT(A)  (m 1/2):           5153.558105
Right Ascen at Week(rad):   0.9723318485E+000
Argument of Perigee(rad):  -1.520632234
Mean Anom(rad):             0.2405145555E+001
Af0(s):                    -0.3213882446E-003
Af1(s/s):                   0.7275957614E-011
week:                        999

******** Week 999 almanac for PRN-22 ********
ID:                         22
Health:                     000
Eccentricity:               0.7019519806E-002
Time of Applicability(s):  61440.0000
Orbital Inclination(rad):   0.9256819049
Rate of Right Ascen(r/s):  -0.8274630386E-008
SQRT(A)  (m 1/2):           5153.622070
Right Ascen at Week(rad):   0.2008817126E+001
Argument of Perigee(rad):  -1.474132318
Mean Anom(rad):            -0.6917635417E+000
Af0(s):                    -0.5464553833E-003
Af1(s/s):                  -0.1091393642E-010
week:                        999

******** Week 999 almanac for PRN-23 ********
ID:                         23
Health:                     000
Eccentricity:               0.1262569427E-001
Time of Applicability(s):  61440.0000
Orbital Inclination(rad):   0.9438380056
Rate of Right Ascen(r/s):  -0.8011762293E-008
SQRT(A)  (m 1/2):           5153.657227
Right Ascen at Week(rad):   0.3103580939E+001
Argument of Perigee(rad):  -2.323873785
Mean Anom(rad):            -0.1320175100E+001
Af0(s):                    -0.2088546753E-003
Af1(s/s):                   0.0000000000E+000
week:                        999

******** Week 999 almanac for PRN-24 ********
ID:                         24
Health:                     000
Eccentricity:               0.7418155670E-002
Time of Applicability(s):  61440.0000
Orbital Inclination(rad):   0.9404225015
Rate of Right Ascen(r/s):  -0.8011762293E-008
SQRT(A)  (m 1/2):           5153.571777
Right Ascen at Week(rad):  -0.2161874028E+001
Argument of Perigee(rad):   0.536397054
Mean Anom(rad):            -0.1743591623E+001
Af0(s):                    -0.5722045898E-004
Af1(s/s):                   0.0000000000E+000
week:                        999

******** Week 999 almanac for PRN-25 ********
ID:                         25
Health:                     000
Eccentricity:               0.7511615753E-002
Time of Applicability(s):  61440.0000
Orbital Inclination(rad):   0.9726241138
Rate of Right Ascen(r/s):  -0.8000333246E-008
SQRT(A)  (m 1/2):           5153.531250
Right Ascen at Week(rad):  -0.1065211839E+001
Argument of Perigee(rad):   0.856573973
Mean Anom(rad):             0.2536552581E+001
Af0(s):                    -0.6618499756E-003
Af1(s/s):                  -0.7275957614E-011
week:                        999

******** Week 999 almanac for PRN-26 ********
ID:                         26
Health:                     000
Eccentricity:               0.3037452698E-002
Time of Applicability(s):  61440.0000
Orbital Inclination(rad):   0.9540605494
Rate of Right Ascen(r/s):  -0.8160339911E-008
SQRT(A)  (m 1/2):           5153.682129
Right Ascen at Week(rad):  -0.1089698606E+001
Argument of Perigee(rad):   0.045539680
Mean Anom(rad):             0.1991521642E+001
Af0(s):                     0.9536743164E-005
Af1(s/s):                   0.1091393642E-010
week:                        999

******** Week 999 almanac for PRN-27 ********
ID:                         27
Health:                     000
Eccentricity:               0.6081581116E-002
Time of Applicability(s):  61440.0000
Orbital Inclination(rad):   0.9783226128
Rate of Right Ascen(r/s):  -0.7863184676E-008
SQRT(A)  (m 1/2):           5153.651855
Right Ascen at Week(rad):  -0.2514777244E-001
Argument of Perigee(rad):   0.446809730
Mean Anom(rad):             0.7409808808E-001
Af0(s):                    -0.4768371582E-005
Af1(s/s):                  -0.3637978807E-011
week:                        999

******** Week 999 almanac for PRN-28 ********
ID:                         28
Health:                     000
Eccentricity:               0.1962375641E-001
Time of Applicability(s):  61440.0000
Orbital Inclination(rad):   0.9844165911
Rate of Right Ascen(r/s):  -0.7851755629E-008
SQRT(A)  (m 1/2):           5153.645508
Right Ascen at Week(rad):  -0.9806414105E+000
Argument of Perigee(rad):  -1.508567115
Mean Anom(rad):             0.9698174084E+000
Af0(s):                     0.7495880127E-003
Af1(s/s):                   0.3637978807E-011
week:                        999

******** Week 999 almanac for PRN-29 ********
ID:                         29
Health:                     000
Eccentricity:               0.7376670837E-003
Time of Applicability(s):  61440.0000
Orbital Inclination(rad):   0.9850397708
Rate of Right Ascen(r/s):  -0.7760323249E-008
SQRT(A)  (m 1/2):           5153.574707
Right Ascen at Week(rad):   0.4047110201E-001
Argument of Perigee(rad):   1.661027054
Mean Anom(rad):             0.6055022143E+000
Af0(s):                     0.3566741943E-003
Af1(s/s):                  -0.7275957614E-011
week:                        999

******** Week 999 almanac for PRN-30 ********
ID:                         30
Health:                     000
Eccentricity:               0.3595829010E-002
Time of Applicability(s):  61440.0000
Orbital Inclination(rad):   0.9428013701
Rate of Right Ascen(r/s):  -0.8023191341E-008
SQRT(A)  (m 1/2):           5153.625488
Right Ascen at Week(rad):  -0.2068194091E+001
Argument of Perigee(rad):  -2.970410360
Mean Anom(rad):            -0.2790124549E+001
Af0(s):                     0.1049041748E-004
Af1(s/s):                  -0.3637978807E-011
week:                        999

******** Week 999 almanac for PRN-31 ********
ID:                         31
Health:                     000
Eccentricity:               0.8973121643E-002
Time of Applicability(s):  61440.0000
Orbital Inclination(rad):   0.9618802562
Rate of Right Ascen(r/s):  -0.7806039439E-008
SQRT(A)  (m 1/2):           5153.713867
Right Ascen at Week(rad):  -0.2086610474E+001
Argument of Perigee(rad):  -0.099627858
Mean Anom(rad):            -0.3000182545E+001
Af0(s):                     0.8678436279E-004
Af1(s/s):                  -0.3637978807E-011
week:                        999

******** Week 999 almanac for PRN-32 ********
ID:                         32
Health:                     000
Eccentricity:               0.2303123474E-002
Time of Applicability(s):  61440.0000
Orbital Inclination(rad):   0.9573622034
Rate of Right Ascen(r/s):  -0.7851755629E-008
SQRT(A)  (m 1/2):           5153.659668
Right Ascen at Week(rad):   0.3112167636E+001
Argument of Perigee(rad):  -2.573200715
Mean Anom(rad):             0.8258441734E+000
Af0(s):                    -0.3929138184E-003
Af1(s/s):                   0.1091393642E-010
week:                        999

